{
  "norad_id": 65478,
  "name": "STARLINK-35093",
  "history": [
    {
      "epoch": "2026-04-15T15:30:39.030048Z",
      "apogee_km": 475.9686949638308,
      "perigee_km": 474.44314083030713,
      "latitude_deg": -1.6671277890102392e-05,
      "longitude_deg": 9.922498912546759,
      "height_km": 476.09412297328095,
      "semi_major_axis_km": 6853.342917897069,
      "eccentricity": 0.0001113,
      "inclination_deg": 53.1568,
      "raan_deg": 86.3905,
      "arg_perigee_deg": 89.2681,
      "mean_anomaly_deg": 270.8447,
      "mean_motion_rev_day": 15.30203065
    },
    {
      "epoch": "2026-04-16T15:01:26.903712Z",
      "apogee_km": 475.9750422259822,
      "perigee_km": 474.4289289508333,
      "latitude_deg": 1.827054609602302e-05,
      "longitude_deg": 11.705996394394992,
      "height_km": 476.06063180076404,
      "semi_major_axis_km": 6853.338985588408,
      "eccentricity": 0.0001128,
      "inclination_deg": 53.1577,
      "raan_deg": 81.8391,
      "arg_perigee_deg": 87.0803,
      "mean_anomaly_deg": 273.0327,
      "mean_motion_rev_day": 15.30204382
    },
    {
      "epoch": "2026-04-17T22:22:30.868608Z",
      "apogee_km": 476.0596332309706,
      "perigee_km": 474.33327853343417,
      "latitude_deg": 4.131217132120343e-06,
      "longitude_deg": -105.91517673680916,
      "height_km": 476.1249986680271,
      "semi_major_axis_km": 6853.3334558822025,
      "eccentricity": 0.00012595,
      "inclination_deg": 53.1585,
      "raan_deg": 75.772,
      "arg_perigee_deg": 92.0324,
      "mean_anomaly_deg": 268.0821,
      "mean_motion_rev_day": 15.30206234
    },
    {
      "epoch": "2026-04-18T04:38:43.610784Z",
      "apogee_km": 475.8136217558849,
      "perigee_km": 474.6038691648955,
      "latitude_deg": 9.914476445955461e-06,
      "longitude_deg": 158.55902703207695,
      "height_km": 475.9209487396116,
      "semi_major_axis_km": 6853.3457454603895,
      "eccentricity": 8.826e-05,
      "inclination_deg": 53.1586,
      "raan_deg": 74.5568,
      "arg_perigee_deg": 72.0613,
      "mean_anomaly_deg": 288.0484,
      "mean_motion_rev_day": 15.30202118
    },
    {
      "epoch": "2026-04-19T07:17:37.507776Z",
      "apogee_km": 476.025771313909,
      "perigee_km": 474.3501333630629,
      "latitude_deg": 7.427999072999136e-06,
      "longitude_deg": 112.58474700372587,
      "height_km": 475.99297568090134,
      "semi_major_axis_km": 6853.324952338486,
      "eccentricity": 0.00012225,
      "inclination_deg": 53.1589,
      "raan_deg": 69.4015,
      "arg_perigee_deg": 83.626,
      "mean_anomaly_deg": 276.488,
      "mean_motion_rev_day": 15.30209082
    },
    {
      "epoch": "2026-04-20T06:48:25.758144Z",
      "apogee_km": 476.13025620289136,
      "perigee_km": 474.30178161744607,
      "latitude_deg": -1.0015690388502123e-05,
      "longitude_deg": 114.36382816180742,
      "height_km": 476.59269964109313,
      "semi_major_axis_km": 6853.353018910168,
      "eccentricity": 0.0001334,
      "inclination_deg": 53.1607,
      "raan_deg": 64.8473,
      "arg_perigee_deg": 121.5492,
      "mean_anomaly_deg": 238.5639,
      "mean_motion_rev_day": 15.30199682
    },
    {
      "epoch": "2026-04-21T06:19:13.881504Z",
      "apogee_km": 476.10086060662707,
      "perigee_km": 474.27842398590747,
      "latitude_deg": 2.408402139544032e-05,
      "longitude_deg": 116.1508775986391,
      "height_km": 476.2503518432459,
      "semi_major_axis_km": 6853.326642296267,
      "eccentricity": 0.00013296,
      "inclination_deg": 53.1613,
      "raan_deg": 60.3005,
      "arg_perigee_deg": 100.2759,
      "mean_anomaly_deg": 259.8392,
      "mean_motion_rev_day": 15.30208516
    },
    {
      "epoch": "2026-04-22T19:56:32.053056Z",
      "apogee_km": 476.4147854245648,
      "perigee_km": 474.26553498712383,
      "latitude_deg": 5.271882863344838e-05,
      "longitude_deg": -97.00108872175085,
      "height_km": 476.35593323893664,
      "semi_major_axis_km": 6853.477160205844,
      "eccentricity": 0.0001568,
      "inclination_deg": 53.1614,
      "raan_deg": 53.0193,
      "arg_perigee_deg": 96.3028,
      "mean_anomaly_deg": 263.8152,
      "mean_motion_rev_day": 15.30158106
    },
    {
      "epoch": "2026-04-23T05:20:51.687744Z",
      "apogee_km": 476.31110979599634,
      "perigee_km": 474.27180362441777,
      "latitude_deg": -1.5269317646440566e-05,
      "longitude_deg": 119.71118034603852,
      "height_km": 476.20290369007506,
      "semi_major_axis_km": 6853.428456710207,
      "eccentricity": 0.00014878,
      "inclination_deg": 53.1602,
      "raan_deg": 51.1997,
      "arg_perigee_deg": 90.7676,
      "mean_anomaly_deg": 269.3495,
      "mean_motion_rev_day": 15.30174417
    },
    {
      "epoch": "2026-04-24T04:51:39.229632Z",
      "apogee_km": 476.15131651990214,
      "perigee_km": 474.1545419661179,
      "latitude_deg": 2.9969694244434578e-05,
      "longitude_deg": 121.49716822669036,
      "height_km": 476.0301191528015,
      "semi_major_axis_km": 6853.28992924301,
      "eccentricity": 0.00014568,
      "inclination_deg": 53.1602,
      "raan_deg": 46.6494,
      "arg_perigee_deg": 88.8147,
      "mean_anomaly_deg": 271.3021,
      "mean_motion_rev_day": 15.30220812
    },
    {
      "epoch": "2026-04-25T12:12:41.318784Z",
      "apogee_km": 475.8180082416775,
      "perigee_km": 474.4542068932715,
      "latitude_deg": -3.564342853198715e-05,
      "longitude_deg": 3.8808912120192094,
      "height_km": 476.08801157183984,
      "semi_major_axis_km": 6853.273107567475,
      "eccentricity": 9.95e-05,
      "inclination_deg": 53.162,
      "raan_deg": 40.5794,
      "arg_perigee_deg": 94.4766,
      "mean_anomaly_deg": 265.6348,
      "mean_motion_rev_day": 15.30226446
    },
    {
      "epoch": "2026-04-26T22:41:52.088064Z",
      "apogee_km": 476.16025774339505,
      "perigee_km": 474.3934476521699,
      "latitude_deg": -1.6363389708973577e-05,
      "longitude_deg": -161.50126896132858,
      "height_km": 476.1264775497806,
      "semi_major_axis_km": 6853.413852697782,
      "eccentricity": 0.0001289,
      "inclination_deg": 53.1615,
      "raan_deg": 33.9084,
      "arg_perigee_deg": 86.8474,
      "mean_anomaly_deg": 273.2674,
      "mean_motion_rev_day": 15.30179308
    },
    {
      "epoch": "2026-04-27T11:14:17.695104Z",
      "apogee_km": 476.22493088620195,
      "perigee_km": 474.190858121513,
      "latitude_deg": 2.8683129497226042e-05,
      "longitude_deg": 7.447851179452386,
      "height_km": 476.06317431797214,
      "semi_major_axis_km": 6853.344894503857,
      "eccentricity": 0.0001484,
      "inclination_deg": 53.1623,
      "raan_deg": 31.4792,
      "arg_perigee_deg": 87.5912,
      "mean_anomaly_deg": 272.5259,
      "mean_motion_rev_day": 15.30202403
    },
    {
      "epoch": "2026-04-28T10:45:05.476320Z",
      "apogee_km": 475.94718101899616,
      "perigee_km": 474.4504124809855,
      "latitude_deg": 1.1026526706240596e-05,
      "longitude_deg": 9.234994589589789,
      "height_km": 476.0913058860595,
      "semi_major_axis_km": 6853.335796749991,
      "eccentricity": 0.0001092,
      "inclination_deg": 53.1609,
      "raan_deg": 26.9311,
      "arg_perigee_deg": 89.5479,
      "mean_anomaly_deg": 270.5647,
      "mean_motion_rev_day": 15.3020545
    },
    {
      "epoch": "2026-04-29T18:06:09.526752Z",
      "apogee_km": 476.8297536013106,
      "perigee_km": 473.5154930674671,
      "latitude_deg": 6.1315447676828e-05,
      "longitude_deg": -108.38948911910232,
      "height_km": 475.80615671914893,
      "semi_major_axis_km": 6853.309623334389,
      "eccentricity": 0.0002418,
      "inclination_deg": 53.1612,
      "raan_deg": 20.861,
      "arg_perigee_deg": 80.8662,
      "mean_anomaly_deg": 279.2613,
      "mean_motion_rev_day": 15.30214216
    },
    {
      "epoch": "2026-04-30T09:46:41.259936Z",
      "apogee_km": 475.9387769310888,
      "perigee_km": 474.4159704772519,
      "latitude_deg": 9.371628637513302e-06,
      "longitude_deg": 12.801581306913766,
      "height_km": 475.9083480788903,
      "semi_major_axis_km": 6853.31437370417,
      "eccentricity": 0.0001111,
      "inclination_deg": 53.1604,
      "raan_deg": 17.8281,
      "arg_perigee_deg": 77.2991,
      "mean_anomaly_deg": 282.8134,
      "mean_motion_rev_day": 15.30212625
    },
    {
      "epoch": "2026-05-02T02:32:04.422336Z",
      "apogee_km": 475.9009437670502,
      "perigee_km": 474.62347015487285,
      "latitude_deg": -3.647997001348537e-05,
      "longitude_deg": 111.89372802188038,
      "height_km": 476.1845369573361,
      "semi_major_axis_km": 6853.399206960961,
      "eccentricity": 9.32e-05,
      "inclination_deg": 53.1606,
      "raan_deg": 9.9406,
      "arg_perigee_deg": 92.1296,
      "mean_anomaly_deg": 267.9811,
      "mean_motion_rev_day": 15.30184213
    },
    {
      "epoch": "2026-05-03T20:51:30.731616Z",
      "apogee_km": 475.8255987039074,
      "perigee_km": 474.5289516430448,
      "latitude_deg": -2.274015566784924e-05,
      "longitude_deg": -172.8988722312405,
      "height_km": 476.15834932133055,
      "semi_major_axis_km": 6853.314275173476,
      "eccentricity": 9.46e-05,
      "inclination_deg": 53.1609,
      "raan_deg": 1.7458,
      "arg_perigee_deg": 97.3062,
      "mean_anomaly_deg": 262.8046,
      "mean_motion_rev_day": 15.30212658
    },
    {
      "epoch": "2026-05-04T15:40:09.268320Z",
      "apogee_km": 475.88586866446076,
      "perigee_km": 474.4905316537079,
      "latitude_deg": -1.1379500579303607e-05,
      "longitude_deg": -99.46836428309737,
      "height_km": 476.0409454979869,
      "semi_major_axis_km": 6853.3252001590845,
      "eccentricity": 0.0001018,
      "inclination_deg": 53.1621,
      "raan_deg": 358.1094,
      "arg_perigee_deg": 86.2273,
      "mean_anomaly_deg": 273.8844,
      "mean_motion_rev_day": 15.30208999
    }
  ]
}